NORAD_CAT_ID,OBJECT_NAME,OBJECT_TYPE,EPOCH,MEAN_MOTION,ECCENTRICITY,INCLINATION,RA_OF_ASC_NODE,ARG_OF_PERICENTER,MEAN_ANOMALY,BSTAR,MEAN_MOTION_DOT,MEAN_MOTION_DDOT,TLE_LINE0,TLE_LINE1,TLE_LINE2,SEMIMAJOR_AXIS,PERIOD,APOGEE,PERIGEE,DECAYED
53988.0,STARLINK-5113,PAYLOAD,2023-12-20 22:09:00,15.08848921,0.0001518,53.2164,249.4342,84.0066,276.1099,0.00028099,4.188e-05,0.0,0 STARLINK-5113,1 53988U 22125AA  23354.92292663  .00004188  00000-0  28099-3 0  9993,2 53988  53.2164 249.4342 0001518  84.0066 276.1099 15.08848921 67208,6917.853,95.437,540.768,538.668,0.0
53988.0,STARLINK-5113,PAYLOAD,2023-12-20 23:44:23,15.08851747,0.000169,53.2159,249.133,96.8815,263.237,0.00034528,5.213e-05,0.0,0 STARLINK-5113,1 53988U 22125AA  23354.98916445  .00005213  00000-0  34528-3 0  9994,2 53988  53.2159 249.1330 0001690  96.8815 263.2370 15.08851747 67298,6917.844,95.437,540.879,538.54,0.0
53988.0,STARLINK-5113,PAYLOAD,2023-12-21 21:59:47,15.08842718,0.0001708,53.2174,244.9709,113.0271,247.0902,9.047e-05,1.152e-05,0.0,0 STARLINK-5113,1 53988U 22125AA  23355.91652698  .00001152  00000-0  90470-4 0  9992,2 53988  53.2174 244.9709 0001708 113.0271 247.0902 15.08842718 67352,6917.872,95.437,540.919,538.556,0.0
53988.0,STARLINK-5113,PAYLOAD,2023-12-21 23:35:10,15.08844302,0.0001605,53.2162,244.6626,91.013,269.1046,7.3142e-05,8.76e-06,0.0,0 STARLINK-5113,1 53988U 22125AA  23355.98276587  .00000876  00000-0  73142-4 0  9997,2 53988  53.2162 244.6626 0001605  91.0130 269.1046 15.08844302 67444,6917.867,95.437,540.843,538.622,0.0
53988.0,STARLINK-5113,PAYLOAD,2023-12-22 20:15:11,15.08840974,0.000173,53.2158,240.7922,117.4216,242.6953,4.8362e-05,4.82e-06,0.0,0 STARLINK-5113,1 53988U 22125AA  23356.84388688  .00000482  00000-0  48362-4 0  9998,2 53988  53.2158 240.7922 0001730 117.4216 242.6953 15.08840974 67570,6917.877,95.437,540.939,538.546,0.0
53988.0,STARLINK-5113,PAYLOAD,2023-12-22 21:50:34,15.08841586,0.0001678,53.2159,240.4961,112.6856,247.4314,6.4771e-05,7.43e-06,0.0,0 STARLINK-5113,1 53988U 22125AA  23356.91012675  .00000743  00000-0  64771-4 0  9998,2 53988  53.2159 240.4961 0001678 112.6856 247.4314 15.08841586 67506,6917.876,95.437,540.901,538.58,0.0
53988.0,STARLINK-5113,PAYLOAD,2023-12-22 23:25:58,15.08842585,0.0001726,53.2159,240.1996,113.5129,246.6045,9.925e-05,1.292e-05,0.0,0 STARLINK-5113,1 53988U 22125AA  23356.97636640  .00001292  00000-0  99250-4 0  9998,2 53988  53.2159 240.1996 0001726 113.5129 246.6045 15.08842585 67511,6917.872,95.437,540.932,538.543,0.0
53988.0,STARLINK-5113,PAYLOAD,2023-12-23 21:41:22,15.08838422,0.0001717,53.2159,236.0363,114.6209,245.4962,0.00012863,1.76e-05,0.0,0 STARLINK-5113,1 53988U 22125AA  23357.90373080  .00001760  00000-0  12863-3 0  9992,2 53988  53.2159 236.0363 0001717 114.6209 245.4962 15.08838422 67659,6917.885,95.438,540.938,538.562,0.0
53988.0,STARLINK-5113,PAYLOAD,2023-12-24 00:52:08,15.08843104,0.0001616,53.2162,235.4435,110.0656,250.051,0.0001756,2.508e-05,0.0,0 STARLINK-5113,1 53988U 22125AA  23358.03620884  .00002508  00000-0  17560-3 0  9994,2 53988  53.2162 235.4435 0001616 110.0656 250.0510 15.08843104 67755,6917.871,95.437,540.854,538.618,0.0
53988.0,STARLINK-5113,PAYLOAD,2023-12-24 19:56:46,15.08841518,0.0001542,53.2165,231.8773,102.1067,258.0098,2.1728e-05,5.8e-07,0.0,0 STARLINK-5113,1 53988U 22125AA  23358.83109158  .00000058  00000-0  21728-4 0  9998,2 53988  53.2165 231.8773 0001542 102.1067 258.0098 15.08841518 67878,6917.876,95.437,540.807,538.674,0.0
53988.0,STARLINK-5113,PAYLOAD,2023-12-24 21:32:09,15.08842326,0.0001582,53.2167,231.5809,104.2644,255.8524,4.627e-05,4.48e-06,0.0,0 STARLINK-5113,1 53988U 22125AA  23358.89733137  .00000448  00000-0  46270-4 0  9996,2 53988  53.2167 231.5809 0001582 104.2644 255.8524 15.08842326 67805,6917.873,95.437,540.833,538.644,0.0
53988.0,STARLINK-5113,PAYLOAD,2023-12-25 00:42:55,15.08846199,0.0001549,53.2163,230.9826,99.2566,260.8601,0.00012155,1.647e-05,0.0,0 STARLINK-5113,1 53988U 22125AA  23359.02980934  .00001647  00000-0  12155-3 0  9997,2 53988  53.2163 230.9826 0001549  99.2566 260.8601 15.08846199 67828,6917.861,95.437,540.798,538.655,0.0
53988.0,STARLINK-5113,PAYLOAD,2023-12-25 21:22:56,15.08838892,0.0001645,53.2161,227.1179,98.2761,261.8417,3.7761e-05,3.13e-06,0.0,0 STARLINK-5113,1 53988U 22125AA  23359.89093415  .00000313  00000-0  37761-4 0  9991,2 53988  53.2161 227.1179 0001645  98.2761 261.8417 15.08838892 67959,6917.884,95.438,540.887,538.611,0.0
53988.0,STARLINK-5113,PAYLOAD,2023-12-26 00:33:42,15.08841926,0.0001494,53.2155,226.5198,90.9906,269.1257,5.3523e-05,5.64e-06,0.0,0 STARLINK-5113,1 53988U 22125AA  23360.02341235  .00000564  00000-0  53523-4 0  9996,2 53988  53.2155 226.5198 0001494  90.9906 269.1257 15.08841926 68055,6917.875,95.437,540.773,538.706,0.0
53988.0,STARLINK-5113,PAYLOAD,2023-12-26 21:13:43,15.08844166,0.0001396,53.2168,222.6503,85.5774,274.5377,6.0589e-05,6.77e-06,0.0,0 STARLINK-5113,1 53988U 22125AA  23360.88453270  .00000677  00000-0  60589-4 0  9998,2 53988  53.2168 222.6503 0001396  85.5774 274.5377 15.08844166 68108,6917.868,95.437,540.698,538.767,0.0
53988.0,STARLINK-5113,PAYLOAD,2023-12-27 00:24:29,15.08843758,0.0001616,53.217,222.0562,82.0302,278.0873,5.7919e-05,6.34e-06,0.0,0 STARLINK-5113,1 53988U 22125AA  23361.01701318  .00000634  00000-0  57919-4 0  9999,2 53988  53.2170 222.0562 0001616  82.0302 278.0873 15.08843758 68122,6917.869,95.437,540.852,538.616,0.0
53988.0,STARLINK-5113,PAYLOAD,2023-12-27 19:29:07,15.08840692,0.000171,53.2171,218.4867,72.3043,287.8136,7.0477e-05,8.34e-06,0.0,0 STARLINK-5113,1 53988U 22125AA  23361.81189615  .00000834  00000-0  70477-4 0  9993,2 53988  53.2171 218.4867 0001710  72.3043 287.8136 15.08840692 68325,6917.878,95.438,540.926,538.56,0.0
53988.0,STARLINK-5113,PAYLOAD,2023-12-27 21:04:30,15.08840095,0.0001689,53.2171,218.1894,72.7422,287.3755,5.8994e-05,6.51e-06,0.0,0 STARLINK-5113,1 53988U 22125AA  23361.87813615  .00000651  00000-0  58994-4 0  9990,2 53988  53.2171 218.1894 0001689  72.7422 287.3755 15.08840095 68253,6917.88,95.438,540.914,538.577,0.0
53988.0,STARLINK-5113,PAYLOAD,2023-12-28 14:33:45,15.08840013,0.0001549,53.2165,214.9211,103.1614,256.9551,5.3388e-05,5.62e-06,0.0,0 STARLINK-5113,1 53988U 22125AA  23362.60677499  .00000562  00000-0  53388-4 0  9993,2 53988  53.2165 214.9211 0001549 103.1614 256.9551 15.08840013 68368,6917.88,95.438,540.817,538.674,0.0
53988.0,STARLINK-5113,PAYLOAD,2023-12-28 20:55:17,15.0884273,0.0001521,53.2163,213.7351,107.5673,252.5485,4.9504e-05,5e-06,0.0,0 STARLINK-5113,1 53988U 22125AA  23362.87173207  .00000500  00000-0  49504-4 0  9997,2 53988  53.2163 213.7351 0001521 107.5673 252.5485 15.08842730 68402,6917.872,95.437,540.789,538.685,0.0
53988.0,STARLINK-5113,PAYLOAD,2023-12-29 00:06:03,15.08842341,0.0001539,53.2164,213.1409,107.6528,252.4632,4.2389e-05,3.87e-06,0.0,0 STARLINK-5113,1 53988U 22125AA  23363.00421226  .00000387  00000-0  42389-4 0  9997,2 53988  53.2164 213.1409 0001539 107.6528 252.4632 15.08842341 68502,6917.873,95.437,540.803,538.674,0.0
53988.0,STARLINK-5113,PAYLOAD,2023-12-29 19:10:41,15.08837212,0.0001404,53.2158,209.5729,97.5481,262.5671,4.1542e-05,3.73e-06,0.0,0 STARLINK-5113,1 53988U 22125AA  23363.79909674  .00000373  00000-0  41542-4 0  9996,2 53988  53.2158 209.5729 0001404  97.5481 262.5671 15.08837212 68624,6917.889,95.438,540.725,538.783,0.0
53988.0,STARLINK-5113,PAYLOAD,2023-12-30 14:15:19,15.0883838,0.0001387,53.2158,206.0045,95.982,264.133,2.7809e-05,1.55e-06,0.0,0 STARLINK-5113,1 53988U 22125AA  23364.59397774  .00000155  00000-0  27809-4 0  9995,2 53988  53.2158 206.0045 0001387  95.9820 264.1330 15.08838380 68667,6917.885,95.438,540.71,538.791,0.0
53988.0,STARLINK-5113,PAYLOAD,2023-12-30 19:01:29,15.08838758,0.0001368,53.2157,205.1123,97.6159,262.4989,2.6921e-05,1.41e-06,0.0,0 STARLINK-5113,1 53988U 22125AA  23364.79269744  .00000141  00000-0  26921-4 0  9991,2 53988  53.2157 205.1123 0001368  97.6159 262.4989 15.08838758 68699,6917.884,95.438,540.696,538.803,0.0
53988.0,STARLINK-5113,PAYLOAD,2023-12-31 12:30:43,15.08837149,0.0001341,53.2155,201.8418,97.3503,262.7641,5.6187e-05,6.06e-06,0.0,0 STARLINK-5113,1 53988U 22125AA  23365.52133851  .00000606  00000-0  56187-4 0  9995,2 53988  53.2155 201.8418 0001341  97.3503 262.7641 15.08837149 68880,6917.889,95.438,540.682,538.826,0.0
53988.0,STARLINK-5113,PAYLOAD,2023-12-31 18:52:16,15.08838958,0.000132,53.2154,200.6526,98.5556,261.5585,6.1804e-05,6.96e-06,0.0,0 STARLINK-5113,1 53988U 22125AA  23365.78629719  .00000696  00000-0  61804-4 0  9997,2 53988  53.2154 200.6526 0001320  98.5556 261.5585 15.08838958 68843,6917.884,95.438,540.662,538.835,0.0
53988.0,STARLINK-5113,PAYLOAD,2024-01-01 20:18:26,15.08837345,0.0001277,53.2154,195.8951,92.6737,267.4401,3.342e-05,2.44e-06,0.0,0 STARLINK-5113,1 53988U 22125AA  24001.84614050  .00000244  00000-0  33420-4 0  9996,2 53988  53.2154 195.8951 0001277  92.6737 267.4401 15.08837345 69085,6917.889,95.438,540.637,538.87,0.0
53988.0,STARLINK-5113,PAYLOAD,2024-01-01 21:53:49,15.08838424,0.0001291,53.2153,195.5975,96.2686,263.8453,4.1843e-05,3.78e-06,0.0,0 STARLINK-5113,1 53988U 22125AA  24001.91237950  .00000378  00000-0  41843-4 0  9990,2 53988  53.2153 195.5975 0001291  96.2686 263.8453 15.08838424 69015,6917.885,95.438,540.643,538.857,0.0
53988.0,STARLINK-5113,PAYLOAD,2024-01-02 20:09:13,15.08843604,0.0001321,53.2154,191.4338,96.3385,263.7758,5.9316e-05,6.56e-06,0.0,0 STARLINK-5113,1 53988U 22125AA  24002.83973566  .00000656  00000-0  59316-4 0  9995,2 53988  53.2154 191.4338 0001321  96.3385 263.7758 15.08843604 69153,6917.869,95.437,540.648,538.821,0.0
53988.0,STARLINK-5113,PAYLOAD,2024-01-03 12:03:04,15.08836927,0.0001376,53.2155,188.4604,87.2111,272.9038,3.4283e-05,2.58e-06,0.0,0 STARLINK-5113,1 53988U 22125AA  24003.50214109  .00000258  00000-0  34283-4 0  9995,2 53988  53.2155 188.4604 0001376  87.2111 272.9038 15.08836927 69335,6917.89,95.438,540.707,538.803,0.0
